[{"OBJECT_NAME":"STARLINK-5638","OBJECT_ID":"2023-014AM","EPOCH":"2026-03-09T10:55:05.496672","MEAN_MOTION":14.98340882,"ECCENTRICITY":0.0003103,"INCLINATION":69.9988,"RA_OF_ASC_NODE":85.187,"ARG_OF_PERICENTER":270.8133,"MEAN_ANOMALY":89.2671,"EPHEMERIS_TYPE":0,"CLASSIFICATION_TYPE":"U","NORAD_CAT_ID":55426,"ELEMENT_SET_NO":999,"REV_AT_EPOCH":17152,"BSTAR":8.5342334e-5,"MEAN_MOTION_DOT":9.26e-6,"MEAN_MOTION_DDOT":0},{"OBJECT_NAME":"FENGYUN 1C DEB","OBJECT_ID":"1999-025CEL","EPOCH":"2026-03-09T13:55:44.240160","MEAN_MOTION":14.69547099,"ECCENTRICITY":0.0148084,"INCLINATION":97.9062,"RA_OF_ASC_NODE":104.3983,"ARG_OF_PERICENTER":98.2334,"MEAN_ANOMALY":51.9192,"EPHEMERIS_TYPE":0,"CLASSIFICATION_TYPE":"U","NORAD_CAT_ID":31737,"ELEMENT_SET_NO":999,"REV_AT_EPOCH":99474,"BSTAR":0.00068437,"MEAN_MOTION_DOT":4.757e-5,"MEAN_MOTION_DDOT":0}]
